[{"OBJECT_NAME":"CELESTIS-17 & SHERPA-FX1","OBJECT_ID":"2021-006CB","EPOCH":"2026-03-09T15:26:05.078112","MEAN_MOTION":15.30994801,"ECCENTRICITY":0.000663,"INCLINATION":97.2397,"RA_OF_ASC_NODE":112.1052,"ARG_OF_PERICENTER":178.1385,"MEAN_ANOMALY":181.9882,"EPHEMERIS_TYPE":0,"CLASSIFICATION_TYPE":"U","NORAD_CAT_ID":47486,"ELEMENT_SET_NO":999,"REV_AT_EPOCH":28406,"BSTAR":0.00024301,"MEAN_MOTION_DOT":7.207e-5,"MEAN_MOTION_DDOT":0},{"OBJECT_NAME":"STARLINK-35878","OBJECT_ID":"2025-303R","EPOCH":"2026-03-09T00:33:41.453280","MEAN_MOTION":15.27598188,"ECCENTRICITY":0.00029159,"INCLINATION":43.002,"RA_OF_ASC_NODE":314.44,"ARG_OF_PERICENTER":246.4167,"MEAN_ANOMALY":113.6378,"EPHEMERIS_TYPE":0,"CLASSIFICATION_TYPE":"U","NORAD_CAT_ID":67178,"ELEMENT_SET_NO":999,"REV_AT_EPOCH":1263,"BSTAR":0.0012258242,"MEAN_MOTION_DOT":0.00033645,"MEAN_MOTION_DDOT":0}]
